[{"OBJECT_NAME":"STARLINK-34405","OBJECT_ID":"2025-142J","EPOCH":"2026-03-09T21:33:02.138688","MEAN_MOTION":14.98336718,"ECCENTRICITY":0.00029096,"INCLINATION":70.0009,"RA_OF_ASC_NODE":313.8675,"ARG_OF_PERICENTER":268.8895,"MEAN_ANOMALY":91.1931,"EPHEMERIS_TYPE":0,"CLASSIFICATION_TYPE":"U","NORAD_CAT_ID":64704,"ELEMENT_SET_NO":999,"REV_AT_EPOCH":3952,"BSTAR":0.0002554378,"MEAN_MOTION_DOT":2.957e-5,"MEAN_MOTION_DDOT":0},{"OBJECT_NAME":"ION SCV-022","OBJECT_ID":"2025-276S","EPOCH":"2026-03-09T17:53:05.489952","MEAN_MOTION":14.97347265,"ECCENTRICITY":0.00045393,"INCLINATION":97.5376,"RA_OF_ASC_NODE":142.978,"ARG_OF_PERICENTER":154.7099,"MEAN_ANOMALY":205.4346,"EPHEMERIS_TYPE":0,"CLASSIFICATION_TYPE":"U","NORAD_CAT_ID":66682,"ELEMENT_SET_NO":999,"REV_AT_EPOCH":1519,"BSTAR":0.00017276803,"MEAN_MOTION_DOT":1.95e-5,"MEAN_MOTION_DDOT":0}]
